SL-14 R/B               
1 16792U 86046B   26070.49120250  .00000567  00000+0  62494-4 0  9993
2 16792  82.4784  78.4790 0022080 219.1346 140.8274 14.85592274126678
SL-14 R/B               
1 16882U 86055B   26070.64103539  .00000491  00000+0  53763-4 0  9996
2 16882  82.5198 124.8401 0018013 329.8581 196.3196 14.85644586119657
AJISAI (EGS)            
1 16908U 86061A   26070.82615981 -.00000102  00000+0 -34626-4 0  9999
2 16908  50.0080  86.7777 0011277 292.5359 238.4968 12.44515646468268
SL-14 R/B               
1 17567U 87024B   26070.79326750  .00000540  00000+0  58764-4 0  9993
2 17567  82.5245  90.7860 0016722 252.3333 107.6058 14.86134200 88443
COSMOS 1833             
1 17589U 87027A   26070.84238673 -.00000199  00000+0 -80513-4 0  9991
2 17589  70.9219 321.4949 0024165 211.5131 148.4544 14.13054234 10620
SL-16 R/B               
1 17590U 87027B   26070.88040553  .00000039  00000+0  43049-4 0  9999
2 17590  70.9997 271.8785 0003277 137.9978 222.1397 14.17166526 15658
SL-14 R/B               
1 17912U 87038B   26070.85668961  .00000440  00000+0  48198-4 0  9991
2 17912  82.4997 294.7663 0019852 153.4889 206.7347 14.85371112 79559
COSMOS 1844             
1 17973U 87041A   26070.87527387 -.00000151  00000+0 -53432-4 0  9998
2 17973  70.9000  29.5648 0030146  14.5953 345.6032 14.14551691  3890
SL-14 R/B               
1 18153U 87055B   26070.83322529  .00000590  00000+0  65133-4 0  9997
2 18153  82.5030 347.0118 0020987  10.8498 349.3166 14.85632025 70250
COSMOS 1867             
1 18187U 87060A   26070.88642514 -.00000030  00000+0  26412-4 0  9991
2 18187  65.0110 300.5539 0014514 278.7966  81.1475 14.31503430 20254
SL-14 R/B               
1 18749U 88001B   26070.82868651  .00000644  00000+0  71607-4 0  9993
2 18749  82.5156 193.3486 0016966 228.1562 131.8207 14.85530559 42346
COSMOS 1933             
1 18958U 88020A   26070.83358660  .00005359  00000+0  26209-3 0  9996
2 18958  82.5104 248.7900 0004108 174.2005 185.9277 15.18005778 50551
