CCSDS_OMM_VERS = 2.0
CREATION_DATE  = 
ORIGINATOR     = 

OBJECT_NAME    = SL-14 R/B
OBJECT_ID      = 1986-046B
CENTER_NAME    = EARTH
REF_FRAME      = TEME
TIME_SYSTEM    = UTC
MEAN_ELEMENT_THEORY = SGP/SGP4

EPOCH          = 2026-03-11T11:47:19.896000
MEAN_MOTION    = 14.85592274
ECCENTRICITY   = .002208
INCLINATION    = 82.4784
RA_OF_ASC_NODE = 78.4790
ARG_OF_PERICENTER = 219.1346
MEAN_ANOMALY   = 140.8274

EPHEMERIS_TYPE = 0
CLASSIFICATION_TYPE = U
NORAD_CAT_ID   = 16792
ELEMENT_SET_NO = 999
REV_AT_EPOCH   = 12667
BSTAR          = .62494E-4
MEAN_MOTION_DOT = .567E-5
MEAN_MOTION_DDOT = 0

CCSDS_OMM_VERS = 2.0
CREATION_DATE  = 
ORIGINATOR     = 

OBJECT_NAME    = SL-14 R/B
OBJECT_ID      = 1986-055B
CENTER_NAME    = EARTH
REF_FRAME      = TEME
TIME_SYSTEM    = UTC
MEAN_ELEMENT_THEORY = SGP/SGP4

EPOCH          = 2026-03-11T15:23:05.457696
MEAN_MOTION    = 14.85644586
ECCENTRICITY   = .0018013
INCLINATION    = 82.5198
RA_OF_ASC_NODE = 124.8401
ARG_OF_PERICENTER = 329.8581
MEAN_ANOMALY   = 196.3196

EPHEMERIS_TYPE = 0
CLASSIFICATION_TYPE = U
NORAD_CAT_ID   = 16882
ELEMENT_SET_NO = 999
REV_AT_EPOCH   = 11965
BSTAR          = .53763E-4
MEAN_MOTION_DOT = .491E-5
MEAN_MOTION_DDOT = 0

CCSDS_OMM_VERS = 2.0
CREATION_DATE  = 
ORIGINATOR     = 

OBJECT_NAME    = AJISAI (EGS)
OBJECT_ID      = 1986-061A
CENTER_NAME    = EARTH
REF_FRAME      = TEME
TIME_SYSTEM    = UTC
MEAN_ELEMENT_THEORY = SGP/SGP4

EPOCH          = 2026-03-11T19:49:40.207584
MEAN_MOTION    = 12.44515646
ECCENTRICITY   = .0011277
INCLINATION    = 50.0080
RA_OF_ASC_NODE = 86.7777
ARG_OF_PERICENTER = 292.5359
MEAN_ANOMALY   = 238.4968

EPHEMERIS_TYPE = 0
CLASSIFICATION_TYPE = U
NORAD_CAT_ID   = 16908
ELEMENT_SET_NO = 999
REV_AT_EPOCH   = 46826
BSTAR          = -.34626E-4
MEAN_MOTION_DOT = -.102E-5
MEAN_MOTION_DDOT = 0

CCSDS_OMM_VERS = 2.0
CREATION_DATE  = 
ORIGINATOR     = 

OBJECT_NAME    = SL-14 R/B
OBJECT_ID      = 1987-024B
CENTER_NAME    = EARTH
REF_FRAME      = TEME
TIME_SYSTEM    = UTC
MEAN_ELEMENT_THEORY = SGP/SGP4

EPOCH          = 2026-03-11T19:02:18.312000
MEAN_MOTION    = 14.86134200
ECCENTRICITY   = .0016722
INCLINATION    = 82.5245
RA_OF_ASC_NODE = 90.7860
ARG_OF_PERICENTER = 252.3333
MEAN_ANOMALY   = 107.6058

EPHEMERIS_TYPE = 0
CLASSIFICATION_TYPE = U
NORAD_CAT_ID   = 17567
ELEMENT_SET_NO = 999
REV_AT_EPOCH   = 8844
BSTAR          = .58764E-4
MEAN_MOTION_DOT = .54E-5
MEAN_MOTION_DDOT = 0

CCSDS_OMM_VERS = 2.0
CREATION_DATE  = 
ORIGINATOR     = 

OBJECT_NAME    = COSMOS 1833
OBJECT_ID      = 1987-027A
CENTER_NAME    = EARTH
REF_FRAME      = TEME
TIME_SYSTEM    = UTC
MEAN_ELEMENT_THEORY = SGP/SGP4

EPOCH          = 2026-03-11T20:13:02.213472
MEAN_MOTION    = 14.13054234
ECCENTRICITY   = .0024165
INCLINATION    = 70.9219
RA_OF_ASC_NODE = 321.4949
ARG_OF_PERICENTER = 211.5131
MEAN_ANOMALY   = 148.4544

EPHEMERIS_TYPE = 0
CLASSIFICATION_TYPE = U
NORAD_CAT_ID   = 17589
ELEMENT_SET_NO = 999
REV_AT_EPOCH   = 1062
BSTAR          = -.80513E-4
MEAN_MOTION_DOT = -.199E-5
MEAN_MOTION_DDOT = 0

CCSDS_OMM_VERS = 2.0
CREATION_DATE  = 
ORIGINATOR     = 

OBJECT_NAME    = SL-16 R/B
OBJECT_ID      = 1987-027B
CENTER_NAME    = EARTH
REF_FRAME      = TEME
TIME_SYSTEM    = UTC
MEAN_ELEMENT_THEORY = SGP/SGP4

EPOCH          = 2026-03-11T21:07:47.037792
MEAN_MOTION    = 14.17166526
ECCENTRICITY   = .0003277
INCLINATION    = 70.9997
RA_OF_ASC_NODE = 271.8785
ARG_OF_PERICENTER = 137.9978
MEAN_ANOMALY   = 222.1397

EPHEMERIS_TYPE = 0
CLASSIFICATION_TYPE = U
NORAD_CAT_ID   = 17590
ELEMENT_SET_NO = 999
REV_AT_EPOCH   = 1565
BSTAR          = .43049E-4
MEAN_MOTION_DOT = .39E-6
MEAN_MOTION_DDOT = 0

CCSDS_OMM_VERS = 2.0
CREATION_DATE  = 
ORIGINATOR     = 

OBJECT_NAME    = SL-14 R/B
OBJECT_ID      = 1987-038B
CENTER_NAME    = EARTH
REF_FRAME      = TEME
TIME_SYSTEM    = UTC
MEAN_ELEMENT_THEORY = SGP/SGP4

EPOCH          = 2026-03-11T20:33:37.982304
MEAN_MOTION    = 14.85371112
ECCENTRICITY   = .0019852
INCLINATION    = 82.4997
RA_OF_ASC_NODE = 294.7663
ARG_OF_PERICENTER = 153.4889
MEAN_ANOMALY   = 206.7347

EPHEMERIS_TYPE = 0
CLASSIFICATION_TYPE = U
NORAD_CAT_ID   = 17912
ELEMENT_SET_NO = 999
REV_AT_EPOCH   = 7955
BSTAR          = .48198E-4
MEAN_MOTION_DOT = .44E-5
MEAN_MOTION_DDOT = 0

CCSDS_OMM_VERS = 2.0
CREATION_DATE  = 
ORIGINATOR     = 

OBJECT_NAME    = COSMOS 1844
OBJECT_ID      = 1987-041A
CENTER_NAME    = EARTH
REF_FRAME      = TEME
TIME_SYSTEM    = UTC
MEAN_ELEMENT_THEORY = SGP/SGP4

EPOCH          = 2026-03-11T21:00:23.662368
MEAN_MOTION    = 14.14551691
ECCENTRICITY   = .0030146
INCLINATION    = 70.9000
RA_OF_ASC_NODE = 29.5648
ARG_OF_PERICENTER = 14.5953
MEAN_ANOMALY   = 345.6032

EPHEMERIS_TYPE = 0
CLASSIFICATION_TYPE = U
NORAD_CAT_ID   = 17973
ELEMENT_SET_NO = 999
REV_AT_EPOCH   = 389
BSTAR          = -.53432E-4
MEAN_MOTION_DOT = -.151E-5
MEAN_MOTION_DDOT = 0

CCSDS_OMM_VERS = 2.0
CREATION_DATE  = 
ORIGINATOR     = 

OBJECT_NAME    = SL-14 R/B
OBJECT_ID      = 1987-055B
CENTER_NAME    = EARTH
REF_FRAME      = TEME
TIME_SYSTEM    = UTC
MEAN_ELEMENT_THEORY = SGP/SGP4

EPOCH          = 2026-03-11T19:59:50.665056
MEAN_MOTION    = 14.85632025
ECCENTRICITY   = .0020987
INCLINATION    = 82.5030
RA_OF_ASC_NODE = 347.0118
ARG_OF_PERICENTER = 10.8498
MEAN_ANOMALY   = 349.3166

EPHEMERIS_TYPE = 0
CLASSIFICATION_TYPE = U
NORAD_CAT_ID   = 18153
ELEMENT_SET_NO = 999
REV_AT_EPOCH   = 7025
BSTAR          = .65133E-4
MEAN_MOTION_DOT = .59E-5
MEAN_MOTION_DDOT = 0

CCSDS_OMM_VERS = 2.0
CREATION_DATE  = 
ORIGINATOR     = 

OBJECT_NAME    = COSMOS 1867
OBJECT_ID      = 1987-060A
CENTER_NAME    = EARTH
REF_FRAME      = TEME
TIME_SYSTEM    = UTC
MEAN_ELEMENT_THEORY = SGP/SGP4

EPOCH          = 2026-03-11T21:16:27.132096
MEAN_MOTION    = 14.31503430
ECCENTRICITY   = .0014514
INCLINATION    = 65.0110
RA_OF_ASC_NODE = 300.5539
ARG_OF_PERICENTER = 278.7966
MEAN_ANOMALY   = 81.1475

EPHEMERIS_TYPE = 0
CLASSIFICATION_TYPE = U
NORAD_CAT_ID   = 18187
ELEMENT_SET_NO = 999
REV_AT_EPOCH   = 2025
BSTAR          = .26412E-4
MEAN_MOTION_DOT = -.3E-6
MEAN_MOTION_DDOT = 0

CCSDS_OMM_VERS = 2.0
CREATION_DATE  = 
ORIGINATOR     = 

OBJECT_NAME    = SL-14 R/B
OBJECT_ID      = 1988-001B
CENTER_NAME    = EARTH
REF_FRAME      = TEME
TIME_SYSTEM    = UTC
MEAN_ELEMENT_THEORY = SGP/SGP4

EPOCH          = 2026-03-11T19:53:18.514464
MEAN_MOTION    = 14.85530559
ECCENTRICITY   = .0016966
INCLINATION    = 82.5156
RA_OF_ASC_NODE = 193.3486
ARG_OF_PERICENTER = 228.1562
MEAN_ANOMALY   = 131.8207

EPHEMERIS_TYPE = 0
CLASSIFICATION_TYPE = U
NORAD_CAT_ID   = 18749
ELEMENT_SET_NO = 999
REV_AT_EPOCH   = 4234
BSTAR          = .71607E-4
MEAN_MOTION_DOT = .644E-5
MEAN_MOTION_DDOT = 0

CCSDS_OMM_VERS = 2.0
CREATION_DATE  = 
ORIGINATOR     = 

OBJECT_NAME    = COSMOS 1933
OBJECT_ID      = 1988-020A
CENTER_NAME    = EARTH
REF_FRAME      = TEME
TIME_SYSTEM    = UTC
MEAN_ELEMENT_THEORY = SGP/SGP4

EPOCH          = 2026-03-11T20:00:21.882240
MEAN_MOTION    = 15.18005778
ECCENTRICITY   = .0004108
INCLINATION    = 82.5104
RA_OF_ASC_NODE = 248.7900
ARG_OF_PERICENTER = 174.2005
MEAN_ANOMALY   = 185.9277

EPHEMERIS_TYPE = 0
CLASSIFICATION_TYPE = U
NORAD_CAT_ID   = 18958
ELEMENT_SET_NO = 999
REV_AT_EPOCH   = 5055
BSTAR          = .26209E-3
MEAN_MOTION_DOT = .5359E-4
MEAN_MOTION_DDOT = 0

